start=new Date('2022-03-04T00:00:00.000Z').valueOf();
sats=[{"OBJECT_ID":"2021-044AJ","SEMIMAJOR_AXIS":"6925.347","ARG_OF_PERICENTER":"84.0918","ECCENTRICITY":"0.00014830","MEAN_MOTION_DOT":"0.00000775","OBJECT_NAME":"STARLINK-2763","BSTAR":"0.00007091600000","FILE":"3343255","MEAN_MOTION":"15.06400518","TLE_LINE2":"2 48670  53.0538 217.1843 0001483  84.0918 276.0240 15.06400518 42730","GP_ID":"197770193","PERIAPSIS":"546.185","SITE":"AFETR","EPHEMERIS_TYPE":"0","CLASSIFICATION_TYPE":"U","RCS_SIZE":"LARGE","OBJECT_TYPE":"PAYLOAD","LAUNCH_DATE":"2021-05-26","TLE_LINE1":"1 48670U 21044AJ  22062.69879506  .00000775  00000-0  70916-4 0  9994","DECAY_DATE":null,"COUNTRY_CODE":"US","REF_FRAME":"TEME","MEAN_ANOMALY":"276.0240","APOAPSIS":"548.239","INCLINATION":"53.0538","MEAN_MOTION_DDOT":"0.0000000000000","REV_AT_EPOCH":"4273","MEAN_ELEMENT_THEORY":"SGP4","CENTER_NAME":"EARTH","PERIOD":"95.592","EPOCH":"2022-03-03T16:46:15.893184","NORAD_CAT_ID":"48670","ELEMENT_SET_NO":"999","RA_OF_ASC_NODE":"217.1843","TIME_SYSTEM":"UTC"},{"BSTAR":"0.00010972000000","FILE":"3343255","ECCENTRICITY":"0.00014680","MEAN_MOTION_DOT":"0.00001353","OBJECT_NAME":"STARLINK-2745","TLE_LINE2":"2 48671  53.0544 216.6210 0001468  70.9949 289.1199 15.06405426 42754","GP_ID":"197769943","SITE":"AFETR","PERIAPSIS":"546.180","MEAN_MOTION":"15.06405426","OBJECT_ID":"2021-044AK","ARG_OF_PERICENTER":"70.9949","SEMIMAJOR_AXIS":"6925.332","EPOCH":"2022-03-03T19:52:02.279424","NORAD_CAT_ID":"48671","CENTER_NAME":"EARTH","PERIOD":"95.592","TIME_SYSTEM":"UTC","ELEMENT_SET_NO":"999","RA_OF_ASC_NODE":"216.6210","RCS_SIZE":"LARGE","OBJECT_TYPE":"PAYLOAD","EPHEMERIS_TYPE":"0","CLASSIFICATION_TYPE":"U","INCLINATION":"53.0544","MEAN_MOTION_DDOT":"0.0000000000000","MEAN_ELEMENT_THEORY":"SGP4","REV_AT_EPOCH":"4275","TLE_LINE1":"1 48671U 21044AK  22062.82780416  .00001353  00000-0  10972-3 0  9999","DECAY_DATE":null,"LAUNCH_DATE":"2021-05-26","COUNTRY_CODE":"US","REF_FRAME":"TEME","MEAN_ANOMALY":"289.1199","APOAPSIS":"548.214"},{"ARG_OF_PERICENTER":"76.0708","SEMIMAJOR_AXIS":"6925.346","OBJECT_ID":"2021-044AL","OBJECT_NAME":"STARLINK-2705","ECCENTRICITY":"0.00011890","MEAN_MOTION_DOT":"0.00002776","BSTAR":"0.00020518000000","FILE":"3343255","MEAN_MOTION":"15.06400989","PERIAPSIS":"546.387","SITE":"AFETR","GP_ID":"197769192","TLE_LINE2":"2 48672  53.0542 216.3353 0001189  76.0708 284.0413 15.06400989 42761","CLASSIFICATION_TYPE":"U","EPHEMERIS_TYPE":"0","OBJECT_TYPE":"PAYLOAD","RCS_SIZE":"LARGE","APOAPSIS":"548.034","TLE_LINE1":"1 48672U 21044AL  22062.89046898  .00002776  00000-0  20518-3 0  9993","COUNTRY_CODE":"US","DECAY_DATE":null,"LAUNCH_DATE":"2021-05-26","REF_FRAME":"TEME","MEAN_ANOMALY":"284.0413","REV_AT_EPOCH":"4276","MEAN_ELEMENT_THEORY":"SGP4","INCLINATION":"53.0542","MEAN_MOTION_DDOT":"0.0000000000000","PERIOD":"95.592","CENTER_NAME":"EARTH","EPOCH":"2022-03-03T21:22:16.519872","NORAD_CAT_ID":"48672","RA_OF_ASC_NODE":"216.3353","ELEMENT_SET_NO":"999","TIME_SYSTEM":"UTC"},{"CLASSIFICATION_TYPE":"U","EPHEMERIS_TYPE":"0","OBJECT_TYPE":"PAYLOAD","RCS_SIZE":"LARGE","APOAPSIS":"548.067","DECAY_DATE":null,"TLE_LINE1":"1 48673U 21044AM  22062.82043293  .00001041  00000-0  88790-4 0  9994","COUNTRY_CODE":"US","LAUNCH_DATE":"2021-05-26","REF_FRAME":"TEME","MEAN_ANOMALY":"284.7730","REV_AT_EPOCH":"4275","MEAN_ELEMENT_THEORY":"SGP4","INCLINATION":"53.0547","MEAN_MOTION_DDOT":"0.0000000000000","PERIOD":"95.592","CENTER_NAME":"EARTH","EPOCH":"2022-03-03T19:41:25.405152","NORAD_CAT_ID":"48673","RA_OF_ASC_NODE":"216.6434","ELEMENT_SET_NO":"999","TIME_SYSTEM":"UTC","ARG_OF_PERICENTER":"75.3397","SEMIMAJOR_AXIS":"6925.337","OBJECT_ID":"2021-044AM","OBJECT_NAME":"STARLINK-2711","ECCENTRICITY":"0.00012490","MEAN_MOTION_DOT":"0.00001041","BSTAR":"0.00008879000000","FILE":"3343255","MEAN_MOTION":"15.06403801","PERIAPSIS":"546.337","SITE":"AFETR","TLE_LINE2":"2 48673  53.0547 216.6434 0001249  75.3397 284.7730 15.06403801 42757","GP_ID":"197769442"},{"MEAN_MOTION":"15.06398253","TLE_LINE2":"2 48674  53.0548 217.2574 0001345  75.9502 284.1637 15.06398253 42734","GP_ID":"197769693","SITE":"AFETR","PERIAPSIS":"546.287","ECCENTRICITY":"0.00013450","MEAN_MOTION_DOT":"0.00000445","OBJECT_NAME":"STARLINK-2712","FILE":"3343255","BSTAR":"0.00004876600000","OBJECT_ID":"2021-044AN","ARG_OF_PERICENTER":"75.9502","SEMIMAJOR_AXIS":"6925.354","ELEMENT_SET_NO":"999","RA_OF_ASC_NODE":"217.2574","TIME_SYSTEM":"UTC","CENTER_NAME":"EARTH","PERIOD":"95.592","NORAD_CAT_ID":"48674","EPOCH":"2022-03-03T16:25:02.618112","MEAN_ANOMALY":"284.1637","DECAY_DATE":null,"TLE_LINE1":"1 48674U 21044AN  22062.68405808  .00000445  00000-0  48766-4 0  9999","COUNTRY_CODE":"US","LAUNCH_DATE":"2021-05-26","REF_FRAME":"TEME","APOAPSIS":"548.150","MEAN_MOTION_DDOT":"0.0000000000000","INCLINATION":"53.0548","MEAN_ELEMENT_THEORY":"SGP4","REV_AT_EPOCH":"4273","EPHEMERIS_TYPE":"0","CLASSIFICATION_TYPE":"U","RCS_SIZE":"LARGE","OBJECT_TYPE":"PAYLOAD"},{"REV_AT_EPOCH":"4275","MEAN_ELEMENT_THEORY":"SGP4","MEAN_MOTION_DDOT":"0.0000000000000","INCLINATION":"53.0541","APOAPSIS":"548.208","MEAN_ANOMALY":"288.7632","TLE_LINE1":"1 48675U 21044AP  22062.81306161  .00000542  00000-0  55256-4 0  9997","DECAY_DATE":null,"COUNTRY_CODE":"US","LAUNCH_DATE":"2021-05-26","REF_FRAME":"TEME","OBJECT_TYPE":"PAYLOAD","RCS_SIZE":"LARGE","CLASSIFICATION_TYPE":"U","EPHEMERIS_TYPE":"0","TIME_SYSTEM":"UTC","RA_OF_ASC_NODE":"216.6890","ELEMENT_SET_NO":"999","NORAD_CAT_ID":"48675","EPOCH":"2022-03-03T19:30:48.523104","PERIOD":"95.592","CENTER_NAME":"EARTH","SEMIMAJOR_AXIS":"6925.365","ARG_OF_PERICENTER":"71.3510","OBJECT_ID":"2021-044AP","SITE":"AFETR","PERIAPSIS":"546.252","GP_ID":"197770444","TLE_LINE2":"2 48675  53.0541 216.6890 0001412  71.3510 288.7632 15.06394619 42755","MEAN_MOTION":"15.06394619","FILE":"3343255","BSTAR":"0.00005525600000","OBJECT_NAME":"STARLINK-2737","ECCENTRICITY":"0.00014120","MEAN_MOTION_DOT":"0.00000542"},{"OBJECT_ID":"2021-044AQ","ARG_OF_PERICENTER":"74.7668","SEMIMAJOR_AXIS":"6925.358","TLE_LINE2":"2 48676  53.0558 216.6999 0001510  74.7668 285.3488 15.06396994 42754","GP_ID":"197768692","PERIAPSIS":"546.177","SITE":"AFETR","MEAN_MOTION":"15.06396994","FILE":"3343255","BSTAR":"0.00006388900000","ECCENTRICITY":"0.00015100","MEAN_MOTION_DOT":"0.00000670","OBJECT_NAME":"STARLINK-2746","MEAN_MOTION_DDOT":"0.0000000000000","INCLINATION":"53.0558","REV_AT_EPOCH":"4275","MEAN_ELEMENT_THEORY":"SGP4","MEAN_ANOMALY":"285.3488","DECAY_DATE":null,"TLE_LINE1":"1 48676U 21044AQ  22062.80938033  .00000670  00000-0  63889-4 0  9999","REF_FRAME":"TEME","LAUNCH_DATE":"2021-05-26","COUNTRY_CODE":"US","APOAPSIS":"548.268","OBJECT_TYPE":"PAYLOAD","RCS_SIZE":"LARGE","EPHEMERIS_TYPE":"0","CLASSIFICATION_TYPE":"U","TIME_SYSTEM":"UTC","ELEMENT_SET_NO":"999","RA_OF_ASC_NODE":"216.6999","NORAD_CAT_ID":"48676","EPOCH":"2022-03-03T19:25:30.460512","CENTER_NAME":"EARTH","PERIOD":"95.592"},{"PERIOD":"95.592","CENTER_NAME":"EARTH","NORAD_CAT_ID":"48677","EPOCH":"2022-03-03T19:20:11.416416","RA_OF_ASC_NODE":"216.7115","ELEMENT_SET_NO":"999","TIME_SYSTEM":"UTC","CLASSIFICATION_TYPE":"U","EPHEMERIS_TYPE":"0","OBJECT_TYPE":"PAYLOAD","RCS_SIZE":"LARGE","APOAPSIS":"548.192","MEAN_ANOMALY":"279.9461","TLE_LINE1":"1 48677U 21044AR  22062.80568769  .00000636  00000-0  61571-4 0  9993","LAUNCH_DATE":"2021-05-26","DECAY_DATE":null,"REF_FRAME":"TEME","COUNTRY_CODE":"US","MEAN_ELEMENT_THEORY":"SGP4","REV_AT_EPOCH":"4275","MEAN_MOTION_DDOT":"0.0000000000000","INCLINATION":"53.0553","OBJECT_NAME":"STARLINK-2719","ECCENTRICITY":"0.00014170","MEAN_MOTION_DOT":"0.00000636","FILE":"3343255","BSTAR":"0.00006157100000","MEAN_MOTION":"15.06400861","PERIAPSIS":"546.230","SITE":"AFETR","TLE_LINE2":"2 48677  53.0553 216.7115 0001417  80.1688 279.9461 15.06400861 42759","GP_ID":"197768942","ARG_OF_PERICENTER":"80.1688","SEMIMAJOR_AXIS":"6925.346","OBJECT_ID":"2021-044AR"},{"OBJECT_ID":"2021-044AS","SEMIMAJOR_AXIS":"6925.331","ARG_OF_PERICENTER":"77.6946","GP_ID":"197770194","TLE_LINE2":"2 48678  53.0527 216.4379 0001527  77.6946 282.4214 15.06405693 42764","SITE":"AFETR","PERIAPSIS":"546.139","MEAN_MOTION":"15.06405693","BSTAR":"0.00040319000000","FILE":"3343255","ECCENTRICITY":"0.00015270","MEAN_MOTION_DOT":"0.00005730","OBJECT_NAME":"STARLINK-2615","INCLINATION":"53.0527","MEAN_MOTION_DDOT":"0.0000000000000","REV_AT_EPOCH":"4276","MEAN_ELEMENT_THEORY":"SGP4","TLE_LINE1":"1 48678U 21044AS  22062.86835326  .00005730  00000-0  40319-3 0  9992","COUNTRY_CODE":"US","DECAY_DATE":null,"LAUNCH_DATE":"2021-05-26","REF_FRAME":"TEME","MEAN_ANOMALY":"282.4214","APOAPSIS":"548.254","OBJECT_TYPE":"PAYLOAD","RCS_SIZE":"LARGE","EPHEMERIS_TYPE":"0","CLASSIFICATION_TYPE":"U","TIME_SYSTEM":"UTC","ELEMENT_SET_NO":"999","RA_OF_ASC_NODE":"216.4379","EPOCH":"2022-03-03T20:50:25.721664","NORAD_CAT_ID":"48678","CENTER_NAME":"EARTH","PERIOD":"95.592"},{"MEAN_MOTION":"15.06401908","SITE":"AFETR","PERIAPSIS":"546.251","TLE_LINE2":"2 48679  53.0541 216.4586 0001382  83.7799 276.3347 15.06401908 42768","GP_ID":"197769944","OBJECT_NAME":"STARLINK-2648","ECCENTRICITY":"0.00013820","MEAN_MOTION_DOT":"0.00001088","BSTAR":"0.00009191200000","FILE":"3343255","SEMIMAJOR_AXIS":"6925.343","ARG_OF_PERICENTER":"83.7799","OBJECT_ID":"2021-044AT","RA_OF_ASC_NODE":"216.4586","ELEMENT_SET_NO":"999","TIME_SYSTEM":"UTC","PERIOD":"95.592","CENTER_NAME":"EARTH","EPOCH":"2022-03-03T20:45:07.037856","NORAD_CAT_ID":"48679","APOAPSIS":"548.165","COUNTRY_CODE":"US","TLE_LINE1":"1 48679U 21044AT  22062.86466479  .00001088  00000-0  91912-4 0  9990","DECAY_DATE":null,"LAUNCH_DATE":"2021-05-26","REF_FRAME":"TEME","MEAN_ANOMALY":"276.3347","REV_AT_EPOCH":"4276","MEAN_ELEMENT_THEORY":"SGP4","INCLINATION":"53.0541","MEAN_MOTION_DDOT":"0.0000000000000","CLASSIFICATION_TYPE":"U","EPHEMERIS_TYPE":"0","OBJECT_TYPE":"PAYLOAD","RCS_SIZE":"LARGE"}];
